{
  "norad_id": 65356,
  "name": "STARLINK-34680",
  "history": [
    {
      "epoch": "2026-04-13T03:07:04.287936Z",
      "apogee_km": 476.0640950060688,
      "perigee_km": 474.2224815270065,
      "latitude_deg": 2.14410097694199e-05,
      "longitude_deg": 120.43543451023787,
      "height_km": 475.93851991603896,
      "semi_major_axis_km": 6853.280288266537,
      "eccentricity": 0.00013436,
      "inclination_deg": 53.1624,
      "raan_deg": 8.5284,
      "arg_perigee_deg": 83.5763,
      "mean_anomaly_deg": 276.5391,
      "mean_motion_rev_day": 15.30224041
    },
    {
      "epoch": "2026-04-14T10:28:06.459168Z",
      "apogee_km": 475.28059259695783,
      "perigee_km": 475.0586825280343,
      "latitude_deg": -1.3794357735582673e-05,
      "longitude_deg": 2.81723911230269,
      "height_km": 476.1807304517483,
      "semi_major_axis_km": 6853.306637562496,
      "eccentricity": 1.619e-05,
      "inclination_deg": 53.1642,
      "raan_deg": 2.4568,
      "arg_perigee_deg": 178.8823,
      "mean_anomaly_deg": 181.2178,
      "mean_motion_rev_day": 15.30215216
    },
    {
      "epoch": "2026-04-15T09:58:54.880608Z",
      "apogee_km": 476.34740193263406,
      "perigee_km": 474.0672942680221,
      "latitude_deg": -7.5977527351398e-06,
      "longitude_deg": 4.600626316446159,
      "height_km": 476.0455181736513,
      "semi_major_axis_km": 6853.344348100328,
      "eccentricity": 0.00016635,
      "inclination_deg": 53.162,
      "raan_deg": 357.9076,
      "arg_perigee_deg": 87.0045,
      "mean_anomaly_deg": 273.1146,
      "mean_motion_rev_day": 15.30202586
    },
    {
      "epoch": "2026-04-16T01:39:26.568864Z",
      "apogee_km": 475.93052674814044,
      "perigee_km": 474.4719992990049,
      "latitude_deg": -3.957364862533828e-05,
      "longitude_deg": 125.79170075822701,
      "height_km": 476.13965358335196,
      "semi_major_axis_km": 6853.338263023573,
      "eccentricity": 0.00010641,
      "inclination_deg": 53.1604,
      "raan_deg": 354.8745,
      "arg_perigee_deg": 93.143,
      "mean_anomaly_deg": 266.9692,
      "mean_motion_rev_day": 15.30204624
    },
    {
      "epoch": "2026-04-17T21:32:56.174496Z",
      "apogee_km": 476.01524044949474,
      "perigee_km": 474.4263579773251,
      "latitude_deg": 3.553077028920187e-05,
      "longitude_deg": 177.12224051430272,
      "height_km": 476.21660002872244,
      "semi_major_axis_km": 6853.35779921341,
      "eccentricity": 0.00011592,
      "inclination_deg": 53.159,
      "raan_deg": 346.3809,
      "arg_perigee_deg": 97.0625,
      "mean_anomaly_deg": 263.0508,
      "mean_motion_rev_day": 15.30198081
    },
    {
      "epoch": "2026-04-18T08:31:18.540480Z",
      "apogee_km": 475.84198365144766,
      "perigee_km": 474.5708255167656,
      "latitude_deg": 4.6441310504042e-06,
      "longitude_deg": 9.953885871219608,
      "height_km": 476.0928982705601,
      "semi_major_axis_km": 6853.343404584107,
      "eccentricity": 9.274e-05,
      "inclination_deg": 53.1577,
      "raan_deg": 344.2564,
      "arg_perigee_deg": 88.9365,
      "mean_anomaly_deg": 271.1742,
      "mean_motion_rev_day": 15.30202902
    },
    {
      "epoch": "2026-04-19T14:18:19.426752Z",
      "apogee_km": 476.0019030973872,
      "perigee_km": 474.40644527203585,
      "latitude_deg": -1.3377177329992984e-05,
      "longitude_deg": -83.78878925883221,
      "height_km": 475.38405502854863,
      "semi_major_axis_km": 6853.341174184711,
      "eccentricity": 0.0001164,
      "inclination_deg": 53.158,
      "raan_deg": 338.4906,
      "arg_perigee_deg": 334.5317,
      "mean_anomaly_deg": 25.5626,
      "mean_motion_rev_day": 15.30203649
    },
    {
      "epoch": "2026-04-20T07:32:55.520736Z",
      "apogee_km": 475.82808650657716,
      "perigee_km": 474.69384914290276,
      "latitude_deg": 2.0005811507764377e-05,
      "longitude_deg": 13.515083202688503,
      "height_km": 475.63834218616637,
      "semi_major_axis_km": 6853.39796782474,
      "eccentricity": 8.275e-05,
      "inclination_deg": 53.1573,
      "raan_deg": 335.153,
      "arg_perigee_deg": 23.1004,
      "mean_anomaly_deg": 337.0034,
      "mean_motion_rev_day": 15.30184628
    },
    {
      "epoch": "2026-04-21T21:10:11.604864Z",
      "apogee_km": 475.8858217604775,
      "perigee_km": 474.3630270719714,
      "latitude_deg": 4.133200060451276e-06,
      "longitude_deg": 160.37400525788465,
      "height_km": 475.9249934869101,
      "semi_major_axis_km": 6853.261424416224,
      "eccentricity": 0.0001111,
      "inclination_deg": 53.1584,
      "raan_deg": 327.874,
      "arg_perigee_deg": 82.6371,
      "mean_anomaly_deg": 277.4756,
      "mean_motion_rev_day": 15.30230359
    },
    {
      "epoch": "2026-04-22T17:32:52.528128Z",
      "apogee_km": 475.85155971606855,
      "perigee_km": 474.4767875006428,
      "latitude_deg": -5.729106143276108e-06,
      "longitude_deg": -150.08531390427444,
      "height_km": 475.9190144822973,
      "semi_major_axis_km": 6853.301173608355,
      "eccentricity": 0.0001003,
      "inclination_deg": 53.1581,
      "raan_deg": 323.9221,
      "arg_perigee_deg": 77.9561,
      "mean_anomaly_deg": 282.1552,
      "mean_motion_rev_day": 15.30217046
    },
    {
      "epoch": "2026-04-22T23:49:05.235744Z",
      "apogee_km": 475.9948219200951,
      "perigee_km": 474.41224852370306,
      "latitude_deg": 4.298806002816432e-06,
      "longitude_deg": 114.39773671002867,
      "height_km": 476.1265157559551,
      "semi_major_axis_km": 6853.340535221899,
      "eccentricity": 0.00011546,
      "inclination_deg": 53.1582,
      "raan_deg": 322.7156,
      "arg_perigee_deg": 91.8062,
      "mean_anomaly_deg": 268.3071,
      "mean_motion_rev_day": 15.30203863
    },
    {
      "epoch": "2026-04-24T19:42:34.736832Z",
      "apogee_km": 475.8357179511413,
      "perigee_km": 474.3650132124867,
      "latitude_deg": 3.3139171511663394e-05,
      "longitude_deg": 165.72497345443796,
      "height_km": 476.5739573273463,
      "semi_major_axis_km": 6853.237365581814,
      "eccentricity": 0.0001073,
      "inclination_deg": 53.16,
      "raan_deg": 314.2183,
      "arg_perigee_deg": 141.4032,
      "mean_anomaly_deg": 218.7046,
      "mean_motion_rev_day": 15.30238417
    },
    {
      "epoch": "2026-04-25T19:13:23.013984Z",
      "apogee_km": 475.9326642854685,
      "perigee_km": 474.526353477846,
      "latitude_deg": -7.328378410013886e-06,
      "longitude_deg": 167.50462684851783,
      "height_km": 476.6308248004082,
      "semi_major_axis_km": 6853.366508881657,
      "eccentricity": 0.0001026,
      "inclination_deg": 53.1602,
      "raan_deg": 309.6648,
      "arg_perigee_deg": 135.6126,
      "mean_anomaly_deg": 224.4957,
      "mean_motion_rev_day": 15.30195164
    },
    {
      "epoch": "2026-04-26T20:18:15.581088Z",
      "apogee_km": 476.02516366589316,
      "perigee_km": 474.4364159448596,
      "latitude_deg": -1.3896065186025081e-05,
      "longitude_deg": 145.40744171167165,
      "height_km": 475.88729699068944,
      "semi_major_axis_km": 6853.367789805376,
      "eccentricity": 0.00011591,
      "inclination_deg": 53.1596,
      "raan_deg": 304.8167,
      "arg_perigee_deg": 72.2819,
      "mean_anomaly_deg": 287.8308,
      "mean_motion_rev_day": 15.30194735
    },
    {
      "epoch": "2026-04-27T19:49:02.378208Z",
      "apogee_km": 475.87299634888586,
      "perigee_km": 474.3666504990979,
      "latitude_deg": -4.515691779297942e-05,
      "longitude_deg": 147.1964866204038,
      "height_km": 475.72370342054853,
      "semi_major_axis_km": 6853.256823423992,
      "eccentricity": 0.0001099,
      "inclination_deg": 53.1596,
      "raan_deg": 300.2664,
      "arg_perigee_deg": 66.9803,
      "mean_anomaly_deg": 293.1313,
      "mean_motion_rev_day": 15.302319
    },
    {
      "epoch": "2026-04-28T19:19:49.876896Z",
      "apogee_km": 475.79867246511003,
      "perigee_km": 474.60756195274007,
      "latitude_deg": -1.285019763382753e-06,
      "longitude_deg": 148.97885625334837,
      "height_km": 476.05826748439125,
      "semi_major_axis_km": 6853.340117208925,
      "eccentricity": 8.69e-05,
      "inclination_deg": 53.1592,
      "raan_deg": 295.7123,
      "arg_perigee_deg": 85.8226,
      "mean_anomaly_deg": 274.2874,
      "mean_motion_rev_day": 15.30204003
    },
    {
      "epoch": "2026-04-29T20:24:41.013216Z",
      "apogee_km": 475.806963175919,
      "perigee_km": 474.5555472625165,
      "latitude_deg": 2.2316685315421414e-06,
      "longitude_deg": 126.88215644869705,
      "height_km": 476.02874350004,
      "semi_major_axis_km": 6853.3182552192175,
      "eccentricity": 9.13e-05,
      "inclination_deg": 53.1589,
      "raan_deg": 290.8587,
      "arg_perigee_deg": 85.3286,
      "mean_anomaly_deg": 274.7819,
      "mean_motion_rev_day": 15.30211325
    },
    {
      "epoch": "2026-04-30T13:39:15.622848Z",
      "apogee_km": 475.6234212444879,
      "perigee_km": 474.7408508061508,
      "latitude_deg": 6.708336615986131e-05,
      "longitude_deg": -135.80824493482515,
      "height_km": 476.48864073066517,
      "semi_major_axis_km": 6853.3191360253195,
      "eccentricity": 6.439e-05,
      "inclination_deg": 53.1583,
      "raan_deg": 287.5206,
      "arg_perigee_deg": 202.8354,
      "mean_anomaly_deg": 157.2619,
      "mean_motion_rev_day": 15.3021103
    },
    {
      "epoch": "2026-05-02T11:06:49.146912Z",
      "apogee_km": 475.82741682157666,
      "perigee_km": 474.61985467755767,
      "latitude_deg": -1.073807820478837e-05,
      "longitude_deg": -108.36373671173455,
      "height_km": 476.0183114451494,
      "semi_major_axis_km": 6853.360635749567,
      "eccentricity": 8.81e-05,
      "inclination_deg": 53.1593,
      "raan_deg": 278.7218,
      "arg_perigee_deg": 80.0943,
      "mean_anomaly_deg": 280.0157,
      "mean_motion_rev_day": 15.30197131
    }
  ]
}